{"type": "FeatureCollection", "features": [ {"type": "Feature", "properties": {"norad_id": 43108, "name": "BEIDOU-3 M8 (C28)", "group": "beidou", "lat": -12.362479603931213, "lon": -60.564348427576704, "alt_km": 21524.730567245893, "timestamp": "2025-12-22T14:45:57.667873+00:00", "meta": {"OBJECT_NAME": "BEIDOU-3 M8 (C28)", "OBJECT_ID": "2018-003B", "EPOCH": "2025-12-21T00:39:03.607776", "MEAN_MOTION": 1.86231132, "ECCENTRICITY": 0.00046009, "INCLINATION": 54.4823, "RA_OF_ASC_NODE": 308.5094, "ARG_OF_PERICENTER": 278.1656, "MEAN_ANOMALY": 81.7767, "EPHEMERIS_TYPE": 0, "CLASSIFICATION_TYPE": "U", "NORAD_CAT_ID": 43108, "ELEMENT_SET_NO": 999, "REV_AT_EPOCH": 5404, "BSTAR": 0, "MEAN_MOTION_DOT": -6.6e-07, "MEAN_MOTION_DDOT": 0}, "tle": {"line1": "1 43108U 18003B   25355.02712509 -.00000066  00000+0  00000+0 0  9995", "line2": "2 43108  54.4823 308.5094 0004600 278.1656  81.7767  1.86231132 54044"}}, "geometry": {"type": "Point", "coordinates": [-60.564348427576704, -12.362479603931213]}}, {"type": "Feature", "properties": {"norad_id": 43207, "name": "BEIDOU-3 M4 (C22)", "group": "beidou", "lat": 38.62057104878508, "lon": 100.90001638831306, "alt_km": 21515.12777297022, "timestamp": "2025-12-22T14:45:57.667885+00:00", "meta": {"OBJECT_NAME": "BEIDOU-3 M4 (C22)", "OBJECT_ID": "2018-018A", "EPOCH": "2025-12-20T09:29:07.105632", "MEAN_MOTION": 1.86231247, "ECCENTRICITY": 0.0004167, "INCLINATION": 56.4917, "RA_OF_ASC_NODE": 69.0512, "ARG_OF_PERICENTER": 3.4046, "MEAN_ANOMALY": 356.639, "EPHEMERIS_TYPE": 0, "CLASSIFICATION_TYPE": "U", "NORAD_CAT_ID": 43207, "ELEMENT_SET_NO": 999, "REV_AT_EPOCH": 5341, "BSTAR": 0, "MEAN_MOTION_DOT": -4.3e-07, "MEAN_MOTION_DDOT": 0}, "tle": {"line1": "1 43207U 18018A   25354.39522113 -.00000043  00000+0  00000+0 0  9995", "line2": "2 43207  56.4917  69.0512 0004167   3.4046 356.6390  1.86231247 53417"}}, "geometry": {"type": "Point", "coordinates": [100.90001638831306, 38.62057104878508]}}, {"type": "Feature", "properties": {"norad_id": 43208, "name": "BEIDOU-3 M3 (C21)", "group": "beidou", "lat": 3.184468620310923, "lon": 71.11042606111018, "alt_km": 21515.31105958268, "timestamp": "2025-12-22T14:45:57.667896+00:00", "meta": {"OBJECT_NAME": "BEIDOU-3 M3 (C21)", "OBJECT_ID": "2018-018B", "EPOCH": "2025-12-22T01:44:32.904384", "MEAN_MOTION": 1.86231411, "ECCENTRICITY": 0.00070212, "INCLINATION": 56.4927, "RA_OF_ASC_NODE": 68.9999, "ARG_OF_PERICENTER": 313.8798, "MEAN_ANOMALY": 46.1114, "EPHEMERIS_TYPE": 0, "CLASSIFICATION_TYPE": "U", "NORAD_CAT_ID": 43208, "ELEMENT_SET_NO": 999, "REV_AT_EPOCH": 5344, "BSTAR": 0, "MEAN_MOTION_DOT": -3e-07, "MEAN_MOTION_DDOT": 0}, "tle": {"line1": "1 43208U 18018B   25356.07260306 -.00000030  00000+0  00000+0 0  9992", "line2": "2 43208  56.4927  68.9999 0007021 313.8798  46.1114  1.86231411 53441"}}, "geometry": {"type": "Point", "coordinates": [71.11042606111018, 3.184468620310923]}}, {"type": "Feature", "properties": {"norad_id": 43245, "name": "BEIDOU-3 M9 (C29)", "group": "beidou", "lat": -30.640916956184167, "lon": 151.22623585431413, "alt_km": 21530.834183218398, "timestamp": "2025-12-22T14:45:57.667907+00:00", "meta": {"OBJECT_NAME": "BEIDOU-3 M9 (C29)", "OBJECT_ID": "2018-029A", "EPOCH": "2025-12-21T18:02:44.382048", "MEAN_MOTION": 1.8622836, "ECCENTRICITY": 0.00015407, "INCLINATION": 54.3576, "RA_OF_ASC_NODE": 306.1541, "ARG_OF_PERICENTER": 290.4225, "MEAN_ANOMALY": 69.56, "EPHEMERIS_TYPE": 0, "CLASSIFICATION_TYPE": "U", "NORAD_CAT_ID": 43245, "ELEMENT_SET_NO": 999, "REV_AT_EPOCH": 5259, "BSTAR": 0, "MEAN_MOTION_DOT": -5.9e-07, "MEAN_MOTION_DDOT": 0}, "tle": {"line1": "1 43245U 18029A   25355.75190257 -.00000059  00000+0  00000+0 0  9997", "line2": "2 43245  54.3576 306.1541 0001540 290.4225  69.5600  1.86228360 52597"}}, "geometry": {"type": "Point", "coordinates": [151.22623585431413, -30.640916956184167]}}, {"type": "Feature", "properties": {"norad_id": 43246, "name": "BEIDOU-3 M10 (C30)", "group": "beidou", "lat": -53.641455225487405, "lon": -157.03192458719033, "alt_km": 21536.275136110784, "timestamp": "2025-12-22T14:45:57.667918+00:00", "meta": {"OBJECT_NAME": "BEIDOU-3 M10 (C30)", "OBJECT_ID": "2018-029B", "EPOCH": "2025-12-21T16:29:26.843136", "MEAN_MOTION": 1.8622925, "ECCENTRICITY": 0.00042885, "INCLINATION": 54.3548, "RA_OF_ASC_NODE": 306.183, "ARG_OF_PERICENTER": 3.3275, "MEAN_ANOMALY": 356.674, "EPHEMERIS_TYPE": 0, "CLASSIFICATION_TYPE": "U", "NORAD_CAT_ID": 43246, "ELEMENT_SET_NO": 999, "REV_AT_EPOCH": 5257, "BSTAR": 0, "MEAN_MOTION_DOT": -6e-07, "MEAN_MOTION_DDOT": 0}, "tle": {"line1": "1 43246U 18029B   25355.68711624 -.00000060  00000+0  00000+0 0  9999", "line2": "2 43246  54.3548 306.1830 0004288   3.3275 356.6740  1.86229250 52578"}}, "geometry": {"type": "Point", "coordinates": [-157.03192458719033, -53.641455225487405]}}, {"type": "Feature", "properties": {"norad_id": 43539, "name": "BEIDOU-2 IGSO-7 (C16)", "group": "beidou", "lat": -53.661681124563565, "lon": 55.92474625509981, "alt_km": 35439.115225029156, "timestamp": "2025-12-22T14:45:57.667930+00:00", "meta": {"OBJECT_NAME": "BEIDOU-2 IGSO-7 (C16)", "OBJECT_ID": "2018-057A", "EPOCH": "2025-12-15T07:47:07.120608", "MEAN_MOTION": 1.00256546, "ECCENTRICITY": 0.00926218, "INCLINATION": 55.1766, "RA_OF_ASC_NODE": 164.6485, "ARG_OF_PERICENTER": 235.2644, "MEAN_ANOMALY": 271.8458, "EPHEMERIS_TYPE": 0, "CLASSIFICATION_TYPE": "U", "NORAD_CAT_ID": 43539, "ELEMENT_SET_NO": 999, "REV_AT_EPOCH": 2728, "BSTAR": 0, "MEAN_MOTION_DOT": -2.3e-07, "MEAN_MOTION_DDOT": 0}, "tle": {"line1": "1 43539U 18057A   25349.32438797 -.00000023  00000+0  00000+0 0  9995", "line2": "2 43539  55.1766 164.6485 0092621 235.2644 271.8458  1.00256546 27289"}}, "geometry": {"type": "Point", "coordinates": [55.92474625509981, -53.661681124563565]}}, {"type": "Feature", "properties": {"norad_id": 43581, "name": "BEIDOU-3 M5 (C23)", "group": "beidou", "lat": 48.76702946881434, "lon": -47.507717586092035, "alt_km": 21524.293613259062, "timestamp": "2025-12-22T14:45:57.667942+00:00", "meta": {"OBJECT_NAME": "BEIDOU-3 M5 (C23)", "OBJECT_ID": "2018-062A", "EPOCH": "2025-12-20T20:06:28.321920", "MEAN_MOTION": 1.86228978, "ECCENTRICITY": 0.00019384, "INCLINATION": 54.0899, "RA_OF_ASC_NODE": 188.3678, "ARG_OF_PERICENTER": 1.5281, "MEAN_ANOMALY": 358.5256, "EPHEMERIS_TYPE": 0, "CLASSIFICATION_TYPE": "U", "NORAD_CAT_ID": 43581, "ELEMENT_SET_NO": 999, "REV_AT_EPOCH": 5031, "BSTAR": 0, "MEAN_MOTION_DOT": 9.5e-07, "MEAN_MOTION_DDOT": 0}, "tle": {"line1": "1 43581U 18062A   25354.83782780  .00000095  00000+0  00000+0 0  9992", "line2": "2 43581  54.0899 188.3678 0001938   1.5281 358.5256  1.86228978 50311"}}, "geometry": {"type": "Point", "coordinates": [-47.507717586092035, 48.76702946881434]}}, {"type": "Feature", "properties": {"norad_id": 43582, "name": "BEIDOU-3 M6 (C24)", "group": "beidou", "lat": -18.965615731680646, "lon": 22.729524162635105, "alt_km": 21550.658964589, "timestamp": "2025-12-22T14:45:57.667954+00:00", "meta": {"OBJECT_NAME": "BEIDOU-3 M6 (C24)", "OBJECT_ID": "2018-062B", "EPOCH": "2025-12-21T18:35:38.750784", "MEAN_MOTION": 1.86229861, "ECCENTRICITY": 0.00078414, "INCLINATION": 54.0893, "RA_OF_ASC_NODE": 188.325, "ARG_OF_PERICENTER": 48.2349, "MEAN_ANOMALY": 311.8795, "EPHEMERIS_TYPE": 0, "CLASSIFICATION_TYPE": "U", "NORAD_CAT_ID": 43582, "ELEMENT_SET_NO": 999, "REV_AT_EPOCH": 5033, "BSTAR": 0, "MEAN_MOTION_DOT": 9.4e-07, "MEAN_MOTION_DDOT": 0}, "tle": {"line1": "1 43582U 18062B   25355.77475406  .00000094  00000+0  00000+0 0  9990", "line2": "2 43582  54.0893 188.3250 0007841  48.2349 311.8795  1.86229861 50338"}}, "geometry": {"type": "Point", "coordinates": [22.729524162635105, -18.965615731680646]}}, {"type": "Feature", "properties": {"norad_id": 43602, "name": "BEIDOU-3 M12 (C26)", "group": "beidou", "lat": -47.36949971070585, "lon": 58.74852255273896, "alt_km": 21557.328494108293, "timestamp": "2025-12-22T14:45:57.667965+00:00", "meta": {"OBJECT_NAME": "BEIDOU-3 M12 (C26)", "OBJECT_ID": "2018-067A", "EPOCH": "2025-12-19T13:33:24.239232", "MEAN_MOTION": 1.86227856, "ECCENTRICITY": 0.00092481, "INCLINATION": 54.1835, "RA_OF_ASC_NODE": 187.1314, "ARG_OF_PERICENTER": 41.3287, "MEAN_ANOMALY": 318.7989, "EPHEMERIS_TYPE": 0, "CLASSIFICATION_TYPE": "U", "NORAD_CAT_ID": 43602, "ELEMENT_SET_NO": 999, "REV_AT_EPOCH": 4977, "BSTAR": 0, "MEAN_MOTION_DOT": 1.01e-06, "MEAN_MOTION_DDOT": 0}, "tle": {"line1": "1 43602U 18067A   25353.56486388  .00000101  00000+0  00000+0 0  9993", "line2": "2 43602  54.1835 187.1314 0009248  41.3287 318.7989  1.86227856 49773"}}, "geometry": {"type": "Point", "coordinates": [58.74852255273896, -47.36949971070585]}}, {"type": "Feature", "properties": {"norad_id": 43603, "name": "BEIDOU-3 M11 (C25)", "group": "beidou", "lat": 19.97377158349731, "lon": -8.23185197932677, "alt_km": 21533.28605175859, "timestamp": "2025-12-22T14:45:57.667977+00:00", "meta": {"OBJECT_NAME": "BEIDOU-3 M11 (C25)", "OBJECT_ID": "2018-067B", "EPOCH": "2025-12-21T20:19:59.008800", "MEAN_MOTION": 1.86227367, "ECCENTRICITY": 0.00056442, "INCLINATION": 54.1806, "RA_OF_ASC_NODE": 187.018, "ARG_OF_PERICENTER": 37.5016, "MEAN_ANOMALY": 322.5818, "EPHEMERIS_TYPE": 0, "CLASSIFICATION_TYPE": "U", "NORAD_CAT_ID": 43603, "ELEMENT_SET_NO": 999, "REV_AT_EPOCH": 4984, "BSTAR": 0, "MEAN_MOTION_DOT": 9.4e-07, "MEAN_MOTION_DDOT": 0}, "tle": {"line1": "1 43603U 18067B   25355.84721075  .00000094  00000+0  00000+0 0  9993", "line2": "2 43603  54.1806 187.0180 0005644  37.5016 322.5818  1.86227367 49844"}}, "geometry": {"type": "Point", "coordinates": [-8.23185197932677, 19.97377158349731]}}]}